[
{"CCSDS_OMM_VERS":"2.0",
"COMMENT":"GENERATED VIA SPACE-TRACK.ORG API",
"CREATION_DATE":"2022-02-19T04:06:57",
"ORIGINATOR":"18 SPCS",
"OBJECT_NAME":"VANGUARD 1",
"OBJECT_ID":"1958-002B",
"CENTER_NAME":"EARTH",
"REF_FRAME":"TEME",
"TIME_SYSTEM":"UTC",
"MEAN_ELEMENT_THEORY":"SGP4",
"EPOCH":"2022-02-18T14:49:05.511360",
"MEAN_MOTION":"10.84862641",
"ECCENTRICITY":"0.18441680",
"INCLINATION":"34.2522",
"RA_OF_ASC_NODE":"145.5495",
"ARG_OF_PERICENTER":"222.7174",
"MEAN_ANOMALY":"121.4565",
"EPHEMERIS_TYPE":"0",
"CLASSIFICATION_TYPE":"U",
"NORAD_CAT_ID":"5",
"ELEMENT_SET_NO":"999",
"REV_AT_EPOCH":"27163",
"BSTAR":"0.00035141000000",
"MEAN_MOTION_DOT":"0.00000293",
"MEAN_MOTION_DDOT":"0.0000000000000",
"SEMIMAJOR_AXIS":"8619.565",
"PERIOD":"132.736",
"APOAPSIS":"3831.022",
"PERIAPSIS":"651.837",
"OBJECT_TYPE":"PAYLOAD",
"RCS_SIZE":"MEDIUM",
"COUNTRY_CODE":"US",
"LAUNCH_DATE":"1958-03-17",
"SITE":"AFETR",
"DECAY_DATE":null,
"FILE":"3307132",
"GP_ID":"196311694",
"TLE_LINE0":"0 VANGUARD 1",
"TLE_LINE1":"1 00005U 58002B   22049.61742490  .00000293  00000-0  35141-3 0  9991",
"TLE_LINE2":"2 00005  34.2522 145.5495 1844168 222.7174 121.4565 10.84862641271638"},
{"CCSDS_OMM_VERS":"2.0",
"COMMENT":"GENERATED VIA SPACE-TRACK.ORG API",
"CREATION_DATE":"2022-02-19T14:26:19",
"ORIGINATOR":"18 SPCS",
"OBJECT_NAME":"VANGUARD 1",
"OBJECT_ID":"1958-002B",
"CENTER_NAME":"EARTH",
"REF_FRAME":"TEME",
"TIME_SYSTEM":"UTC",
"MEAN_ELEMENT_THEORY":"SGP4",
"EPOCH":"2022-02-19T06:16:53.577408",
"MEAN_MOTION":"10.84863145",
"ECCENTRICITY":"0.18442370",
"INCLINATION":"34.2527",
"RA_OF_ASC_NODE":"143.5652",
"ARG_OF_PERICENTER":"225.6172",
"MEAN_ANOMALY":"117.7985",
"EPHEMERIS_TYPE":"0",
"CLASSIFICATION_TYPE":"U",
"NORAD_CAT_ID":"5",
"ELEMENT_SET_NO":"999",
"REV_AT_EPOCH":"27179",
"BSTAR":"0.00038348000000",
"MEAN_MOTION_DOT":"0.00000319",
"MEAN_MOTION_DDOT":"0.0000000000000",
"SEMIMAJOR_AXIS":"8619.562",
"PERIOD":"132.736",
"APOAPSIS":"3831.079",
"PERIAPSIS":"651.776",
"OBJECT_TYPE":"PAYLOAD",
"RCS_SIZE":"MEDIUM",
"COUNTRY_CODE":"US",
"LAUNCH_DATE":"1958-03-17",
"SITE":"AFETR",
"DECAY_DATE":null,
"FILE":"3308142",
"GP_ID":"196361375",
"TLE_LINE0":"0 VANGUARD 1",
"TLE_LINE1":"1     5U 58002B   22050.26173122  .00000319  00000-0  38348-3 0  9995",
"TLE_LINE2":"2     5  34.2527 143.5652 1844237 225.6172 117.7985 10.84863145271794"},
{"CCSDS_OMM_VERS":"2.0",
"COMMENT":"GENERATED VIA SPACE-TRACK.ORG API",
"CREATION_DATE":"2022-02-19T20:23:02",
"ORIGINATOR":"18 SPCS",
"OBJECT_NAME":"VANGUARD 1",
"OBJECT_ID":"1958-002B",
"CENTER_NAME":"EARTH",
"REF_FRAME":"TEME",
"TIME_SYSTEM":"UTC",
"MEAN_ELEMENT_THEORY":"SGP4",
"EPOCH":"2022-02-19T12:54:31.682880",
"MEAN_MOTION":"10.84863312",
"ECCENTRICITY":"0.18442720",
"INCLINATION":"34.2531",
"RA_OF_ASC_NODE":"142.7147",
"ARG_OF_PERICENTER":"226.8599",
"MEAN_ANOMALY":"116.2477",
"EPHEMERIS_TYPE":"0",
"CLASSIFICATION_TYPE":"U",
"NORAD_CAT_ID":"5",
"ELEMENT_SET_NO":"999",
"REV_AT_EPOCH":"27173",
"BSTAR":"0.00038080000000",
"MEAN_MOTION_DOT":"0.00000317",
"MEAN_MOTION_DDOT":"0.0000000000000",
"SEMIMAJOR_AXIS":"8619.561",
"PERIOD":"132.736",
"APOAPSIS":"3831.108",
"PERIAPSIS":"651.745",
"OBJECT_TYPE":"PAYLOAD",
"RCS_SIZE":"MEDIUM",
"COUNTRY_CODE":"US",
"LAUNCH_DATE":"1958-03-17",
"SITE":"AFETR",
"DECAY_DATE":null,
"FILE":"3308480",
"GP_ID":"196369914",
"TLE_LINE0":"0 VANGUARD 1",
"TLE_LINE1":"1 00005U 58002B   22050.53786670  .00000317  00000-0  38080-3 0  9994",
"TLE_LINE2":"2 00005  34.2531 142.7147 1844272 226.8599 116.2477 10.84863312271734"},
{"CCSDS_OMM_VERS":"2.0",
"COMMENT":"GENERATED VIA SPACE-TRACK.ORG API",
"CREATION_DATE":"2022-02-20T04:58:10",
"ORIGINATOR":"18 SPCS",
"OBJECT_NAME":"VANGUARD 1",
"OBJECT_ID":"1958-002B",
"CENTER_NAME":"EARTH",
"REF_FRAME":"TEME",
"TIME_SYSTEM":"UTC",
"MEAN_ELEMENT_THEORY":"SGP4",
"EPOCH":"2022-02-19T21:44:42.852192",
"MEAN_MOTION":"10.84863415",
"ECCENTRICITY":"0.18443090",
"INCLINATION":"34.2535",
"RA_OF_ASC_NODE":"141.5808",
"ARG_OF_PERICENTER":"228.5166",
"MEAN_ANOMALY":"114.1966",
"EPHEMERIS_TYPE":"0",
"CLASSIFICATION_TYPE":"U",
"NORAD_CAT_ID":"5",
"ELEMENT_SET_NO":"999",
"REV_AT_EPOCH":"27177",
"BSTAR":"0.00035448000000",
"MEAN_MOTION_DOT":"0.00000297",
"MEAN_MOTION_DDOT":"0.0000000000000",
"SEMIMAJOR_AXIS":"8619.561",
"PERIOD":"132.736",
"APOAPSIS":"3831.139",
"PERIAPSIS":"651.712",
"OBJECT_TYPE":"PAYLOAD",
"RCS_SIZE":"MEDIUM",
"COUNTRY_CODE":"US",
"LAUNCH_DATE":"1958-03-17",
"SITE":"AFETR",
"DECAY_DATE":null,
"FILE":"3308986",
"GP_ID":"196406466",
"TLE_LINE0":"0 VANGUARD 1",
"TLE_LINE1":"1 00005U 58002B   22050.90605153  .00000297  00000-0  35448-3 0  9993",
"TLE_LINE2":"2 00005  34.2535 141.5808 1844309 228.5166 114.1966 10.84863415271777"},
{"CCSDS_OMM_VERS":"2.0",
"COMMENT":"GENERATED VIA SPACE-TRACK.ORG API",
"CREATION_DATE":"2022-02-21T04:47:10",
"ORIGINATOR":"18 SPCS",
"OBJECT_NAME":"VANGUARD 1",
"OBJECT_ID":"1958-002B",
"CENTER_NAME":"EARTH",
"REF_FRAME":"TEME",
"TIME_SYSTEM":"UTC",
"MEAN_ELEMENT_THEORY":"SGP4",
"EPOCH":"2022-02-20T15:25:06.405600",
"MEAN_MOTION":"10.84863950",
"ECCENTRICITY":"0.18443810",
"INCLINATION":"34.2541",
"RA_OF_ASC_NODE":"139.3131",
"ARG_OF_PERICENTER":"231.8298",
"MEAN_ANOMALY":"110.1501",
"EPHEMERIS_TYPE":"0",
"CLASSIFICATION_TYPE":"U",
"NORAD_CAT_ID":"5",
"ELEMENT_SET_NO":"999",
"REV_AT_EPOCH":"27185",
"BSTAR":"0.00038014000000",
"MEAN_MOTION_DOT":"0.00000317",
"MEAN_MOTION_DDOT":"0.0000000000000",
"SEMIMAJOR_AXIS":"8619.558",
"PERIOD":"132.736",
"APOAPSIS":"3831.198",
"PERIAPSIS":"651.648",
"OBJECT_TYPE":"PAYLOAD",
"RCS_SIZE":"MEDIUM",
"COUNTRY_CODE":"US",
"LAUNCH_DATE":"1958-03-17",
"SITE":"AFETR",
"DECAY_DATE":null,
"FILE":"3310556",
"GP_ID":"196491291",
"TLE_LINE0":"0 VANGUARD 1",
"TLE_LINE1":"1 00005U 58002B   22051.64243525  .00000317  00000-0  38014-3 0  9991",
"TLE_LINE2":"2 00005  34.2541 139.3131 1844381 231.8298 110.1501 10.84863950271855"},
{"CCSDS_OMM_VERS":"2.0",
"COMMENT":"GENERATED VIA SPACE-TRACK.ORG API",
"CREATION_DATE":"2022-02-21T14:56:12",
"ORIGINATOR":"18 SPCS",
"OBJECT_NAME":"VANGUARD 1",
"OBJECT_ID":"1958-002B",
"CENTER_NAME":"EARTH",
"REF_FRAME":"TEME",
"TIME_SYSTEM":"UTC",
"MEAN_ELEMENT_THEORY":"SGP4",
"EPOCH":"2022-02-21T06:52:58.367424",
"MEAN_MOTION":"10.84864307",
"ECCENTRICITY":"0.18444440",
"INCLINATION":"34.2546",
"RA_OF_ASC_NODE":"137.3287",
"ARG_OF_PERICENTER":"234.7290",
"MEAN_ANOMALY":"106.6716",
"EPHEMERIS_TYPE":"0",
"CLASSIFICATION_TYPE":"U",
"NORAD_CAT_ID":"5",
"ELEMENT_SET_NO":"999",
"REV_AT_EPOCH":"27201",
"BSTAR":"0.00037588000000",
"MEAN_MOTION_DOT":"0.00000314",
"MEAN_MOTION_DDOT":"0.0000000000000",
"SEMIMAJOR_AXIS":"8619.556",
"PERIOD":"132.735",
"APOAPSIS":"3831.250",
"PERIAPSIS":"651.592",
"OBJECT_TYPE":"PAYLOAD",
"RCS_SIZE":"MEDIUM",
"COUNTRY_CODE":"US",
"LAUNCH_DATE":"1958-03-17",
"SITE":"AFETR",
"DECAY_DATE":null,
"FILE":"3311232",
"GP_ID":"196532230",
"TLE_LINE0":"0 VANGUARD 1",
"TLE_LINE1":"1     5U 58002B   22052.28678666  .00000314  00000-0  37588-3 0  9992",
"TLE_LINE2":"2     5  34.2546 137.3287 1844444 234.7290 106.6716 10.84864307272018"},
{"CCSDS_OMM_VERS":"2.0",
"COMMENT":"GENERATED VIA SPACE-TRACK.ORG API",
"CREATION_DATE":"2022-02-22T02:43:58",
"ORIGINATOR":"18 SPCS",
"OBJECT_NAME":"VANGUARD 1",
"OBJECT_ID":"1958-002B",
"CENTER_NAME":"EARTH",
"REF_FRAME":"TEME",
"TIME_SYSTEM":"UTC",
"MEAN_ELEMENT_THEORY":"SGP4",
"EPOCH":"2022-02-21T13:30:38.168064",
"MEAN_MOTION":"10.84864465",
"ECCENTRICITY":"0.18444730",
"INCLINATION":"34.2548",
"RA_OF_ASC_NODE":"136.4783",
"ARG_OF_PERICENTER":"235.9713",
"MEAN_ANOMALY":"105.1988",
"EPHEMERIS_TYPE":"0",
"CLASSIFICATION_TYPE":"U",
"NORAD_CAT_ID":"5",
"ELEMENT_SET_NO":"999",
"REV_AT_EPOCH":"27195",
"BSTAR":"0.00037139000000",
"MEAN_MOTION_DOT":"0.00000311",
"MEAN_MOTION_DDOT":"0.0000000000000",
"SEMIMAJOR_AXIS":"8619.555",
"PERIOD":"132.735",
"APOAPSIS":"3831.274",
"PERIAPSIS":"651.566",
"OBJECT_TYPE":"PAYLOAD",
"RCS_SIZE":"MEDIUM",
"COUNTRY_CODE":"US",
"LAUNCH_DATE":"1958-03-17",
"SITE":"AFETR",
"DECAY_DATE":null,
"FILE":"3312023",
"GP_ID":"196552638",
"TLE_LINE0":"0 VANGUARD 1",
"TLE_LINE1":"1 00005U 58002B   22052.56294176  .00000311  00000-0  37139-3 0  9992",
"TLE_LINE2":"2 00005  34.2548 136.4783 1844473 235.9713 105.1988 10.84864465271958"},
{"CCSDS_OMM_VERS":"2.0",
"COMMENT":"GENERATED VIA SPACE-TRACK.ORG API",
"CREATION_DATE":"2022-02-22T18:30:17",
"ORIGINATOR":"18 SPCS",
"OBJECT_NAME":"VANGUARD 1",
"OBJECT_ID":"1958-002B",
"CENTER_NAME":"EARTH",
"REF_FRAME":"TEME",
"TIME_SYSTEM":"UTC",
"MEAN_ELEMENT_THEORY":"SGP4",
"EPOCH":"2022-02-22T13:48:46.124640",
"MEAN_MOTION":"10.84865099",
"ECCENTRICITY":"0.18445780",
"INCLINATION":"34.2556",
"RA_OF_ASC_NODE":"133.3601",
"ARG_OF_PERICENTER":"240.5269",
"MEAN_ANOMALY":"99.8914",
"EPHEMERIS_TYPE":"0",
"CLASSIFICATION_TYPE":"U",
"NORAD_CAT_ID":"5",
"ELEMENT_SET_NO":"999",
"REV_AT_EPOCH":"27206",
"BSTAR":"0.00036724000000",
"MEAN_MOTION_DOT":"0.00000308",
"MEAN_MOTION_DDOT":"0.0000000000000",
"SEMIMAJOR_AXIS":"8619.552",
"PERIOD":"132.735",
"APOAPSIS":"3831.360",
"PERIAPSIS":"651.473",
"OBJECT_TYPE":"PAYLOAD",
"RCS_SIZE":"MEDIUM",
"COUNTRY_CODE":"US",
"LAUNCH_DATE":"1958-03-17",
"SITE":"AFETR",
"DECAY_DATE":null,
"FILE":"3313833",
"GP_ID":"196618364",
"TLE_LINE0":"0 VANGUARD 1",
"TLE_LINE1":"1 00005U 58002B   22053.57553385  .00000308  00000-0  36724-3 0  9999",
"TLE_LINE2":"2 00005  34.2556 133.3601 1844578 240.5269  99.8914 10.84865099272061"}]